BOTAN                   
1 65942U 98067XP  25307.79562075  .00074105  00000+0  11038-2 0  9995
2 65942  51.6325 334.7378 0004805  16.4520 343.6625 15.54427286  3792
E-KAGAKU-1              
1 65943U 98067XQ  25307.35213755  .00049569  00000+0  76995-3 0  9996
2 65943  51.6338 337.0259 0004475   1.7618 358.3388 15.53447140  3721
2025-226D               
1 65944U 25226D   25308.17315590  .01372600  00000+0  28759-1 0  9994
2 65944  97.6573  22.8220 0020356 273.9288  85.9632 15.42504616  3659
SHIYAN-31               
1 65945U 25227A   25308.24716735  .00010644  00000+0  48672-3 0  9994
2 65945  80.0039  73.0437 0011468 196.2372 163.8490 15.20395331  3326
CZ-2D R/B               
1 65946U 25227B   25308.27799199  .00011383  00000+0  41958-3 0  9994
2 65946  80.1553  73.3100 0021334 322.9924  36.9834 15.27489636  3346
KUIPER-00101            
1 65947U 25228A   25308.17829976  .00036403  00000+0  10655-2 0  9991
2 65947  51.8801 206.3466 0005695 211.6855 148.3788 15.34882238  4496
KUIPER-00113            
1 65948U 25228B   25308.17478041  .00029987  00000+0  87335-3 0  9994
2 65948  51.8806 206.3273 0006032 205.9095 154.1590 15.35133131  4494
KUIPER-00117            
1 65949U 25228C   25308.17536879  .00028146  00000+0  82187-3 0  9995
2 65949  51.8806 206.3311 0005835 206.4957 153.5732 15.35086103  4498
KUIPER-00121            
1 65950U 25228D   25308.18361993  .00027479  00000+0  81765-3 0  9990
2 65950  51.8812 206.3875 0005547 224.9829 135.0707 15.34506356  4498
KUIPER-00122            
1 65951U 25228E   25308.25002315 -.00372571  00000+0 -13095-1 0  9996
2 65951  51.8818 206.1591 0007094 238.1160  88.5206 15.30400849  3123
KUIPER-00123            
1 65952U 25228F   25308.25002315 -.01119089  00000+0 -41769-1 0  9990
2 65952  51.8817 206.1333 0005185 233.0068  91.3992 15.29839815  1429
KUIPER-00124            
1 65953U 25228G   25308.18599008  .00028368  00000+0  84870-3 0  9991
2 65953  51.8807 206.4009 0005462 234.6056 125.4420 15.34317632  4493
